{
  "type": "FeatureCollection",
  "features": [
    {
      "type": "Feature",
      "properties": {
        "norad_id": 34944,
        "name": "COSMOS 2251 DEB",
        "group": "cosmos-2251-debris",
        "lat": 70.95037598980086,
        "lon": -97.57605722603013,
        "alt_km": 699.4116855571074,
        "timestamp": "2025-12-27T20:30:59.675470+00:00",
        "meta_object_name": "COSMOS 2251 DEB",
        "meta_object_id": "1993-036ADX",
        "meta_epoch": "2025-12-26T23:46:57.347328",
        "meta_mean_motion": 14.1421341,
        "meta_eccentricity": 0.02201266,
        "meta_inclination": 73.7465,
        "meta_ra_of_asc_node": 206.3262,
        "meta_arg_of_pericenter": 51.4862,
        "meta_mean_anomaly": 310.5788,
        "meta_ephemeris_type": 0,
        "meta_classification_type": "U",
        "meta_norad_cat_id": 34944,
        "meta_element_set_no": 999,
        "meta_rev_at_epoch": 64284,
        "meta_bstar": 0.00048727973,
        "meta_mean_motion_dot": 1.146e-05,
        "meta_mean_motion_ddot": 0,
        "tle_line1": "1 34944U 93036ADX 25360.99094152  .00001146  00000+0  48728-3 0  9993",
        "tle_line2": "2 34944  73.7465 206.3262 0220126  51.4862 310.5788 14.14213410642845"
      },
      "geometry": {
        "type": "Point",
        "coordinates": [
          -97.57605722603013,
          70.95037598980086
        ]
      }
    },
    {
      "type": "Feature",
      "properties": {
        "norad_id": 34946,
        "name": "COSMOS 2251 DEB",
        "group": "cosmos-2251-debris",
        "lat": -69.99770231455929,
        "lon": -174.93849210952666,
        "alt_km": 727.4344811200353,
        "timestamp": "2025-12-27T20:30:59.675480+00:00",
        "meta_object_name": "COSMOS 2251 DEB",
        "meta_object_id": "1993-036ADZ",
        "meta_epoch": "2025-12-27T06:12:23.942016",
        "meta_mean_motion": 14.62075575,
        "meta_eccentricity": 0.0048632,
        "meta_inclination": 74.0237,
        "meta_ra_of_asc_node": 314.2956,
        "meta_arg_of_pericenter": 86.8656,
        "meta_mean_anomaly": 273.8073,
        "meta_ephemeris_type": 0,
        "meta_classification_type": "U",
        "meta_norad_cat_id": 34946,
        "meta_element_set_no": 999,
        "meta_rev_at_epoch": 88421,
        "meta_bstar": 0.00070197,
        "meta_mean_motion_dot": 3.557e-05,
        "meta_mean_motion_ddot": 0,
        "tle_line1": "1 34946U 93036ADZ 25361.25861044  .00003557  00000+0  70197-3 0  9990",
        "tle_line2": "2 34946  74.0237 314.2956 0048632  86.8656 273.8073 14.62075575884218"
      },
      "geometry": {
        "type": "Point",
        "coordinates": [
          -174.93849210952666,
          -69.99770231455929
        ]
      }
    },
    {
      "type": "Feature",
      "properties": {
        "norad_id": 34949,
        "name": "COSMOS 2251 DEB",
        "group": "cosmos-2251-debris",
        "lat": 73.89041848132676,
        "lon": 163.00599595020643,
        "alt_km": 679.5200740397231,
        "timestamp": "2025-12-27T20:30:59.675490+00:00",
        "meta_object_name": "COSMOS 2251 DEB",
        "meta_object_id": "1993-036AEC",
        "meta_epoch": "2025-12-27T11:58:08.673600",
        "meta_mean_motion": 14.74103299,
        "meta_eccentricity": 0.0079913,
        "meta_inclination": 74.0185,
        "meta_ra_of_asc_node": 80.8238,
        "meta_arg_of_pericenter": 223.0621,
        "meta_mean_anomaly": 136.4283,
        "meta_ephemeris_type": 0,
        "meta_classification_type": "U",
        "meta_norad_cat_id": 34949,
        "meta_element_set_no": 999,
        "meta_rev_at_epoch": 88579,
        "meta_bstar": 0.00058056,
        "meta_mean_motion_dot": 3.993e-05,
        "meta_mean_motion_ddot": 0,
        "tle_line1": "1 34949U 93036AEC 25361.49871150  .00003993  00000+0  58056-3 0  9992",
        "tle_line2": "2 34949  74.0185  80.8238 0079913 223.0621 136.4283 14.74103299885794"
      },
      "geometry": {
        "type": "Point",
        "coordinates": [
          163.00599595020643,
          73.89041848132676
        ]
      }
    },
    {
      "type": "Feature",
      "properties": {
        "norad_id": 34953,
        "name": "COSMOS 2251 DEB",
        "group": "cosmos-2251-debris",
        "lat": 27.946881435679675,
        "lon": 169.62549020397458,
        "alt_km": 702.3388243640638,
        "timestamp": "2025-12-27T20:30:59.675500+00:00",
        "meta_object_name": "COSMOS 2251 DEB",
        "meta_object_id": "1993-036AEG",
        "meta_epoch": "2025-12-27T10:42:41.162400",
        "meta_mean_motion": 14.69100954,
        "meta_eccentricity": 0.0058888,
        "meta_inclination": 74.0935,
        "meta_ra_of_asc_node": 359.115,
        "meta_arg_of_pericenter": 347.1078,
        "meta_mean_anomaly": 163.6327,
        "meta_ephemeris_type": 0,
        "meta_classification_type": "U",
        "meta_norad_cat_id": 34953,
        "meta_element_set_no": 999,
        "meta_rev_at_epoch": 88344,
        "meta_bstar": 0.0011343,
        "meta_mean_motion_dot": 6.818e-05,
        "meta_mean_motion_ddot": 0,
        "tle_line1": "1 34953U 93036AEG 25361.44630975  .00006818  00000+0  11343-2 0  9996",
        "tle_line2": "2 34953  74.0935 359.1150 0058888 347.1078 163.6327 14.69100954883449"
      },
      "geometry": {
        "type": "Point",
        "coordinates": [
          169.62549020397458,
          27.946881435679675
        ]
      }
    },
    {
      "type": "Feature",
      "properties": {
        "norad_id": 34955,
        "name": "COSMOS 2251 DEB",
        "group": "cosmos-2251-debris",
        "lat": -22.461181119362653,
        "lon": 42.550673922692766,
        "alt_km": 558.3972695829734,
        "timestamp": "2025-12-27T20:30:59.675510+00:00",
        "meta_object_name": "COSMOS 2251 DEB",
        "meta_object_id": "1993-036AEJ",
        "meta_epoch": "2025-12-24T22:48:41.659488",
        "meta_mean_motion": 15.00737642,
        "meta_eccentricity": 0.00777361,
        "meta_inclination": 74.035,
        "meta_ra_of_asc_node": 221.6616,
        "meta_arg_of_pericenter": 288.4914,
        "meta_mean_anomaly": 70.7836,
        "meta_ephemeris_type": 0,
        "meta_classification_type": "U",
        "meta_norad_cat_id": 34955,
        "meta_element_set_no": 999,
        "meta_rev_at_epoch": 90217,
        "meta_bstar": 0.00061621674,
        "meta_mean_motion_dot": 8.298e-05,
        "meta_mean_motion_ddot": 0,
        "tle_line1": "1 34955U 93036AEJ 25358.95048217  .00008298  00000+0  61622-3 0  9992",
        "tle_line2": "2 34955  74.0350 221.6616 0077736 288.4914  70.7836 15.00737642902172"
      },
      "geometry": {
        "type": "Point",
        "coordinates": [
          42.550673922692766,
          -22.461181119362653
        ]
      }
    },
    {
      "type": "Feature",
      "properties": {
        "norad_id": 34962,
        "name": "COSMOS 2251 DEB",
        "group": "cosmos-2251-debris",
        "lat": -63.13580998858391,
        "lon": 130.70058058864254,
        "alt_km": 730.7345750975364,
        "timestamp": "2025-12-27T20:30:59.675520+00:00",
        "meta_object_name": "COSMOS 2251 DEB",
        "meta_object_id": "1993-036AER",
        "meta_epoch": "2025-12-26T18:16:25.471488",
        "meta_mean_motion": 14.4656012,
        "meta_eccentricity": 0.00189343,
        "meta_inclination": 74.0287,
        "meta_ra_of_asc_node": 167.1714,
        "meta_arg_of_pericenter": 278.9591,
        "meta_mean_anomaly": 80.9424,
        "meta_ephemeris_type": 0,
        "meta_classification_type": "U",
        "meta_norad_cat_id": 34962,
        "meta_element_set_no": 999,
        "meta_rev_at_epoch": 87781,
        "meta_bstar": 0.00050029763,
        "meta_mean_motion_dot": 1.78e-05,
        "meta_mean_motion_ddot": 0,
        "tle_line1": "1 34962U 93036AER 25360.76140592  .00001780  00000+0  50030-3 0  9991",
        "tle_line2": "2 34962  74.0287 167.1714 0018934 278.9591  80.9424 14.46560120877814"
      },
      "geometry": {
        "type": "Point",
        "coordinates": [
          130.70058058864254,
          -63.13580998858391
        ]
      }
    },
    {
      "type": "Feature",
      "properties": {
        "norad_id": 34963,
        "name": "COSMOS 2251 DEB",
        "group": "cosmos-2251-debris",
        "lat": 71.39941520545656,
        "lon": 71.99844182039146,
        "alt_km": 732.5401836698411,
        "timestamp": "2025-12-27T20:30:59.675530+00:00",
        "meta_object_name": "COSMOS 2251 DEB",
        "meta_object_id": "1993-036AES",
        "meta_epoch": "2025-12-24T11:04:35.037696",
        "meta_mean_motion": 14.51189706,
        "meta_eccentricity": 0.00420275,
        "meta_inclination": 74.171,
        "meta_ra_of_asc_node": 20.8715,
        "meta_arg_of_pericenter": 215.0245,
        "meta_mean_anomaly": 144.8152,
        "meta_ephemeris_type": 0,
        "meta_classification_type": "U",
        "meta_norad_cat_id": 34963,
        "meta_element_set_no": 999,
        "meta_rev_at_epoch": 86971,
        "meta_bstar": 0.00126389,
        "meta_mean_motion_dot": 5.053e-05,
        "meta_mean_motion_ddot": 0,
        "tle_line1": "1 34963U 93036AES 25358.46151664  .00005053  00000+0  12639-2 0  9997",
        "tle_line2": "2 34963  74.1710  20.8715 0042027 215.0245 144.8152 14.51189706869712"
      },
      "geometry": {
        "type": "Point",
        "coordinates": [
          71.99844182039146,
          71.39941520545656
        ]
      }
    }
  ]
}